KUIPER-00035            
1 63748U 25088AA  25290.54406476 -.00001083  00000+0 -11294-3 0  9998
2 63748  51.9022  27.0938 0004488 317.4991  42.5623 14.79933012 26319
KUIPER-00037            
1 63749U 25088AB  25290.95091521 -.00006677  00000+0 -84767-3 0  9994
2 63749  51.9020  24.2510 0007642 268.9072  91.1014 14.79900367 27174
KUIPER-00038            
1 63750U 25088AC  25290.95539446  .00003099  00000+0  46507-3 0  9992
2 63750  51.9036   9.1182 0005734 333.0342  27.0320 14.77070024 26380
KUIPER-00039            
1 64500U 25134A   25290.93962353  .00000666  00000+0  11660-3 0  9992
2 64500  51.8991 144.3151 0012030 177.1162 182.9872 14.79940187 18938
KUIPER-00040            
1 64501U 25134B   25290.92723361  .00006300  00000+0  85268-3 0  9992
2 64501  51.8991 155.5353 0018693 156.4884 203.6937 14.79936140 18778
KUIPER-00041            
1 64502U 25134C   25290.92619264  .00007192  00000+0  96962-3 0  9992
2 64502  51.8985 156.8981 0015152 149.3166 210.8686 14.79950002 18756
KUIPER-00042            
1 64503U 25134D   25290.92993967  .00002402  00000+0  34371-3 0  9993
2 64503  51.9011 152.8789 0013721 160.7385 199.4099 14.79952713 18818
KUIPER-00043            
1 64504U 25134E   25290.87054672 -.00000242  00000+0 -25457-5 0  9998
2 64504  51.9004 145.5769 0004443 144.1701 215.9560 14.79908591 18910
